{"type": "FeatureCollection", "features": [ {"type": "Feature", "properties": {"norad_id": 44804, "name": "CARTOSAT-3", "group": "resource", "lat": 69.98648379928382, "lon": 39.26643743234005, "alt_km": 493.46500030889, "timestamp": "2025-12-26T22:28:05.437016+00:00", "meta": {"OBJECT_NAME": "CARTOSAT-3", "OBJECT_ID": "2019-081A", "EPOCH": "2025-12-26T17:24:49.788864", "MEAN_MOTION": 15.19271746, "ECCENTRICITY": 0.0013571, "INCLINATION": 97.4556, "RA_OF_ASC_NODE": 60.1301, "ARG_OF_PERICENTER": 38.7455, "MEAN_ANOMALY": 321.4751, "EPHEMERIS_TYPE": 0, "CLASSIFICATION_TYPE": "U", "NORAD_CAT_ID": 44804, "ELEMENT_SET_NO": 999, "REV_AT_EPOCH": 33728, "BSTAR": 0.00027979, "MEAN_MOTION_DOT": 5.846e-05, "MEAN_MOTION_DDOT": 0}, "tle": {"line1": "1 44804U 19081A   25360.72557626  .00005846  00000+0  27979-3 0  9994", "line2": "2 44804  97.4556  60.1301 0013571  38.7455 321.4751 15.19271746337287"}}, "geometry": {"type": "Point", "coordinates": [39.26643743234005, 69.98648379928382]}}, {"type": "Feature", "properties": {"norad_id": 44819, "name": "GAOFEN-12 01", "group": "resource", "lat": 8.129094603853002, "lon": 5.720798112971421, "alt_km": 630.6824891293099, "timestamp": "2025-12-26T22:28:05.437026+00:00", "meta": {"OBJECT_NAME": "GAOFEN-12 01", "OBJECT_ID": "2019-082A", "EPOCH": "2025-12-26T17:33:56.087424", "MEAN_MOTION": 14.80673373, "ECCENTRICITY": 0.0002337, "INCLINATION": 97.8125, "RA_OF_ASC_NODE": 6.6456, "ARG_OF_PERICENTER": 173.6897, "MEAN_ANOMALY": 186.4346, "EPHEMERIS_TYPE": 0, "CLASSIFICATION_TYPE": "U", "NORAD_CAT_ID": 44819, "ELEMENT_SET_NO": 999, "REV_AT_EPOCH": 32857, "BSTAR": 7.7401e-05, "MEAN_MOTION_DOT": 5.44e-06, "MEAN_MOTION_DDOT": 0}, "tle": {"line1": "1 44819U 19082A   25360.73189916  .00000544  00000+0  77401-4 0  9991", "line2": "2 44819  97.8125   6.6456 0002337 173.6897 186.4346 14.80673373328572"}}, "geometry": {"type": "Point", "coordinates": [5.720798112971421, 8.129094603853002]}}, {"type": "Feature", "properties": {"norad_id": 44873, "name": "CSG-1", "group": "resource", "lat": -15.372070328808395, "lon": -0.13583422932512706, "alt_km": 627.659656084973, "timestamp": "2025-12-26T22:28:05.437037+00:00", "meta": {"OBJECT_NAME": "CSG-1", "OBJECT_ID": "2019-092A", "EPOCH": "2025-12-26T16:43:43.294368", "MEAN_MOTION": 14.8216318, "ECCENTRICITY": 0.0001448, "INCLINATION": 97.8805, "RA_OF_ASC_NODE": 181.811, "ARG_OF_PERICENTER": 84.8581, "MEAN_ANOMALY": 275.2798, "EPHEMERIS_TYPE": 0, "CLASSIFICATION_TYPE": "U", "NORAD_CAT_ID": 44873, "ELEMENT_SET_NO": 999, "REV_AT_EPOCH": 32592, "BSTAR": 9.2071e-05, "MEAN_MOTION_DOT": 6.81e-06, "MEAN_MOTION_DDOT": 0}, "tle": {"line1": "1 44873U 19092A   25360.69702887  .00000681  00000+0  92071-4 0  9997", "line2": "2 44873  97.8805 181.8110 0001448  84.8581 275.2798 14.82163180325921"}}, "geometry": {"type": "Point", "coordinates": [-0.13583422932512706, -15.372070328808395]}}, {"type": "Feature", "properties": {"norad_id": 46277, "name": "NEMO-HD", "group": "resource", "lat": 82.74212845095737, "lon": -24.568579061888144, "alt_km": 436.2572841000583, "timestamp": "2025-12-26T22:28:05.437047+00:00", "meta": {"OBJECT_NAME": "NEMO-HD", "OBJECT_ID": "2020-061F", "EPOCH": "2025-12-26T14:17:16.552608", "MEAN_MOTION": 15.40611952, "ECCENTRICITY": 9.99e-05, "INCLINATION": 97.2188, "RA_OF_ASC_NODE": 59.5173, "ARG_OF_PERICENTER": 54.6807, "MEAN_ANOMALY": 305.4533, "EPHEMERIS_TYPE": 0, "CLASSIFICATION_TYPE": "U", "NORAD_CAT_ID": 46277, "ELEMENT_SET_NO": 999, "REV_AT_EPOCH": 29537, "BSTAR": 0.00027333791, "MEAN_MOTION_DOT": 0.00011048, "MEAN_MOTION_DDOT": 0}, "tle": {"line1": "1 46277U 20061F   25360.59533047  .00011048  00000+0  27334-3 0  9992", "line2": "2 46277  97.2188  59.5173 0000999  54.6807 305.4533 15.40611952295373"}}, "geometry": {"type": "Point", "coordinates": [-24.568579061888144, 82.74212845095737]}}, {"type": "Feature", "properties": {"norad_id": 46984, "name": "SENTINEL-6A", "group": "resource", "lat": 33.75411740902586, "lon": 150.10787027319364, "alt_km": 1338.3092917554159, "timestamp": "2025-12-26T22:28:05.437058+00:00", "meta": {"OBJECT_NAME": "SENTINEL-6A", "OBJECT_ID": "2020-086A", "EPOCH": "2025-12-26T14:46:40.768032", "MEAN_MOTION": 12.80930802, "ECCENTRICITY": 0.00077678, "INCLINATION": 66.0403, "RA_OF_ASC_NODE": 133.4873, "ARG_OF_PERICENTER": 269.4522, "MEAN_ANOMALY": 90.5603, "EPHEMERIS_TYPE": 0, "CLASSIFICATION_TYPE": "U", "NORAD_CAT_ID": 46984, "ELEMENT_SET_NO": 999, "REV_AT_EPOCH": 23822, "BSTAR": 7.3466105e-05, "MEAN_MOTION_DOT": -4.4e-07, "MEAN_MOTION_DDOT": 0}, "tle": {"line1": "1 46984U 20086A   25360.61574963 -.00000044  00000+0  73466-4 0  9992", "line2": "2 46984  66.0403 133.4873 0007767 269.4522  90.5603 12.80930802238221"}}, "geometry": {"type": "Point", "coordinates": [150.10787027319364, 33.75411740902586]}}, {"type": "Feature", "properties": {"norad_id": 48079, "name": "GAOFEN-12 02", "group": "resource", "lat": 20.396999474035454, "lon": -8.117621702227815, "alt_km": 625.6317360962203, "timestamp": "2025-12-26T22:28:05.437068+00:00", "meta": {"OBJECT_NAME": "GAOFEN-12 02", "OBJECT_ID": "2021-026A", "EPOCH": "2025-12-26T14:15:58.238784", "MEAN_MOTION": 14.80691218, "ECCENTRICITY": 0.00035342, "INCLINATION": 97.9858, "RA_OF_ASC_NODE": 354.5344, "ARG_OF_PERICENTER": 73.3392, "MEAN_ANOMALY": 286.8208, "EPHEMERIS_TYPE": 0, "CLASSIFICATION_TYPE": "U", "NORAD_CAT_ID": 48079, "ELEMENT_SET_NO": 999, "REV_AT_EPOCH": 25622, "BSTAR": 7.8077582e-05, "MEAN_MOTION_DOT": 5.48e-06, "MEAN_MOTION_DDOT": 0}, "tle": {"line1": "1 48079U 21026A   25360.59442406  .00000548  00000+0  78078-4 0  9999", "line2": "2 48079  97.9858 354.5344 0003534  73.3392 286.8208 14.80691218256227"}}, "geometry": {"type": "Point", "coordinates": [-8.117621702227815, 20.396999474035454]}}, {"type": "Feature", "properties": {"norad_id": 48268, "name": "PLEIADES NEO 3", "group": "resource", "lat": 41.3100132144736, "lon": -99.82254234419484, "alt_km": 620.1388234230553, "timestamp": "2025-12-26T22:28:05.437078+00:00", "meta": {"OBJECT_NAME": "PLEIADES NEO 3", "OBJECT_ID": "2021-034A", "EPOCH": "2025-12-26T15:21:50.021856", "MEAN_MOTION": 14.81674828, "ECCENTRICITY": 0.00013761, "INCLINATION": 97.8942, "RA_OF_ASC_NODE": 72.8817, "ARG_OF_PERICENTER": 89.0783, "MEAN_ANOMALY": 271.0588, "EPHEMERIS_TYPE": 0, "CLASSIFICATION_TYPE": "U", "NORAD_CAT_ID": 48268, "ELEMENT_SET_NO": 999, "REV_AT_EPOCH": 25210, "BSTAR": 0.00010009594, "MEAN_MOTION_DOT": 7.36e-06, "MEAN_MOTION_DDOT": 0}, "tle": {"line1": "1 48268U 21034A   25360.64016229  .00000736  00000+0  10010-3 0  9994", "line2": "2 48268  97.8942  72.8817 0001376  89.0783 271.0588 14.81674828252104"}}, "geometry": {"type": "Point", "coordinates": [-99.82254234419484, 41.3100132144736]}}, {"type": "Feature", "properties": {"norad_id": 49070, "name": "PLEIADES NEO 4", "group": "resource", "lat": -41.45611278197753, "lon": 80.20982440432003, "alt_km": 631.2469410554531, "timestamp": "2025-12-26T22:28:05.437091+00:00", "meta": {"OBJECT_NAME": "PLEIADES NEO 4", "OBJECT_ID": "2021-073E", "EPOCH": "2025-12-26T14:33:11.646720", "MEAN_MOTION": 14.81672056, "ECCENTRICITY": 0.00013578, "INCLINATION": 97.8942, "RA_OF_ASC_NODE": 72.8445, "ARG_OF_PERICENTER": 87.8022, "MEAN_ANOMALY": 272.3346, "EPHEMERIS_TYPE": 0, "CLASSIFICATION_TYPE": "U", "NORAD_CAT_ID": 49070, "ELEMENT_SET_NO": 999, "REV_AT_EPOCH": 23581, "BSTAR": -3.8770979e-05, "MEAN_MOTION_DOT": -3.57e-06, "MEAN_MOTION_DDOT": 0}, "tle": {"line1": "1 49070U 21073E   25360.60638480 -.00000357  00000+0 -38771-4 0  9990", "line2": "2 49070  97.8942  72.8445 0001357  87.8022 272.3346 14.81672056235810"}}, "geometry": {"type": "Point", "coordinates": [80.20982440432003, -41.45611278197753]}}, {"type": "Feature", "properties": {"norad_id": 49260, "name": "LANDSAT 9", "group": "resource", "lat": 18.284686481435443, "lon": -108.42636907601458, "alt_km": 702.5554062203746, "timestamp": "2025-12-26T22:28:05.437102+00:00", "meta": {"OBJECT_NAME": "LANDSAT 9", "OBJECT_ID": "2021-088A", "EPOCH": "2025-12-26T15:08:15.499680", "MEAN_MOTION": 14.57112026, "ECCENTRICITY": 0.00011085, "INCLINATION": 98.2076, "RA_OF_ASC_NODE": 68.5392, "ARG_OF_PERICENTER": 93.7415, "MEAN_ANOMALY": 266.3911, "EPHEMERIS_TYPE": 0, "CLASSIFICATION_TYPE": "U", "NORAD_CAT_ID": 49260, "ELEMENT_SET_NO": 999, "REV_AT_EPOCH": 22587, "BSTAR": 0.0001141908, "MEAN_MOTION_DOT": 4.69e-06, "MEAN_MOTION_DDOT": 0}, "tle": {"line1": "1 49260U 21088A   25360.63073495  .00000469  00000+0  11419-3 0  9990", "line2": "2 49260  98.2076  68.5392 0001108  93.7415 266.3911 14.57112026225878"}}, "geometry": {"type": "Point", "coordinates": [-108.42636907601458, 18.284686481435443]}}, {"type": "Feature", "properties": {"norad_id": 51444, "name": "CSG-2", "group": "resource", "lat": 15.055524072995212, "lon": 179.9099276707035, "alt_km": 623.0006972679839, "timestamp": "2025-12-26T22:28:05.437112+00:00", "meta": {"OBJECT_NAME": "CSG-2", "OBJECT_ID": "2022-008A", "EPOCH": "2025-12-26T14:17:54.750912", "MEAN_MOTION": 14.82157302, "ECCENTRICITY": 0.00014539, "INCLINATION": 97.8807, "RA_OF_ASC_NODE": 181.71, "ARG_OF_PERICENTER": 83.858, "MEAN_ANOMALY": 276.2798, "EPHEMERIS_TYPE": 0, "CLASSIFICATION_TYPE": "U", "NORAD_CAT_ID": 51444, "ELEMENT_SET_NO": 999, "REV_AT_EPOCH": 21102, "BSTAR": 8.2443374e-05, "MEAN_MOTION_DOT": 6.04e-06, "MEAN_MOTION_DDOT": 0}, "tle": {"line1": "1 51444U 22008A   25360.59577258  .00000604  00000+0  82443-4 0  9998", "line2": "2 51444  97.8807 181.7100 0001453  83.8580 276.2798 14.82157302211022"}}, "geometry": {"type": "Point", "coordinates": [179.9099276707035, 15.055524072995212]}}]}